STARLINK-4331           
1 53046U 22077D   25182.76353208 -.00000163  00000+0 -80777-5 0  9993
2 53046  97.6554   4.1532 0002027  35.7457 324.3903 15.01260788163274
STARLINK-4352           
1 53047U 22077E   25183.47633935 -.00000845  00000+0 -61212-4 0  9990
2 53047  97.6554   4.8865 0002866 179.5879 180.5348 15.01256775163969
STARLINK-4355           
1 53048U 22077F   25182.75613163  .00000464  00000+0  40694-4 0  9998
2 53048  97.6558   4.1520 0001448  86.5612 273.5778 15.01266811163267
STARLINK-4345           
1 53049U 22077G   25183.08173231 -.00003739  00000+0 -28669-3 0  9990
2 53049  97.6555   4.4750 0001424 157.8392 202.2894 15.01258062163317
STARLINK-4343           
1 53050U 22077H   25182.75403721  .00000233  00000+0  22710-4 0  9991
2 53050  97.6557   4.1495 0001354  96.4843 263.6535 15.01256758163262
STARLINK-4336           
1 53051U 22077J   25182.75589025  .00000186  00000+0  19058-4 0  9992
2 53051  97.6558   4.1347 0000916  80.4424 279.6904 15.01253911163266
STARLINK-4341           
1 53052U 22077K   25183.08543981  .00000002  00000+0  47202-5 0  9991
2 53052  97.6557   4.4751 0001119 117.6419 242.4919 15.01258559163897
STARLINK-4337           
1 53053U 22077L   25183.41129845 -.00000595  00000+0 -41743-4 0  9990
2 53053  97.6554   4.7937 0002604 162.7444 197.3869 15.01257578163941
STARLINK-4339           
1 53054U 22077M   25182.48372584  .00000028  00000+0  68034-5 0  9999
2 53054  97.6557   3.8815 0001690 158.5224 201.6072 15.01265211163806
STARLINK-4338           
1 53055U 22077N   25183.07618403 -.00000210  00000+0 -11753-4 0  9999
2 53055  97.6556   4.4631 0003223 152.9231 207.2162 15.01260249163896
STARLINK-4314           
1 53056U 22077P   25182.48001347 -.00000359  00000+0 -23374-4 0  9993
2 53056  97.6555   3.8767 0001942 179.7175 180.4050 15.01258799163221
STARLINK-4252           
1 53057U 22077Q   25182.73922861  .00000139  00000+0  15419-4 0  9990
2 53057  97.6561   4.1308 0003948 153.0285 207.1145 15.01251997163268
STARLINK-4317           
1 53058U 22077R   25182.75798773  .00000444  00000+0  39116-4 0  9995
2 53058  97.6554   4.1208 0000815  47.2327 312.8966 15.01264618163271
STARLINK-4320           
1 53059U 22077S   25183.46891971 -.00003255  00000+0 -24877-3 0  9991
2 53059  97.6544   4.8468 0003266 138.4182 221.7291 15.01281655163955
STARLINK-4305           
1 53060U 22077T   25183.47424840 -.00000465  00000+0 -31624-4 0  9990
2 53060  97.6557   4.8552 0004025 153.8807 206.2621 15.01259318163950
STARLINK-4308           
1 53061U 22077U   25183.46684273  .00000650  00000+0  55163-4 0  9996
2 53061  97.6574   4.8487 0004671 138.3091 221.8490 15.01262066163958
STARLINK-4311           
1 53062U 22077V   25183.07063069  .00000212  00000+0  21094-4 0  9998
2 53062  97.6564   4.4574 0002849 149.7268 210.4121 15.01259267163895
STARLINK-4307           
1 53063U 22077W   25183.49091087  .00000535  00000+0  46233-4 0  9996
2 53063  97.6556   4.8942 0001790 101.4269 258.7157 15.01269696163969
STARLINK-4313           
1 53064U 22077X   25183.46869487  .00000135  00000+0  15109-4 0  9995
2 53064  97.6567   4.8501 0003071  95.1906 264.9668 15.01261332163958
STARLINK-4312           
1 53065U 22077Y   25182.46335403  .00001228  00000+0  10016-3 0  9996
2 53065  97.6585   3.8618 0003213 138.2984 221.8486 15.01261826163228
STARLINK-4309           
1 53066U 22077Z   25183.46083891  .01191415  00000+0  80745-1 0  9992
2 53066  97.6595   4.8550 0009293 198.8332 161.2551 15.03665017163951
STARLINK-4325           
1 53068U 22077AB  25182.46520717  .00000292  00000+0  27324-4 0  9994
2 53068  97.6580   3.8540 0003723 124.9992 235.1582 15.01262730163227
STARLINK-4323           
1 53069U 22077AC  25183.05581855  .00000811  00000+0  67708-4 0  9998
2 53069  97.6582   4.4552 0001763  88.9669 271.1757 15.01259376163891
STARLINK-4342           
1 53070U 22077AD  25183.46130744  .00003022  00000+0  23975-3 0  9996
2 53070  97.6597   4.8480 0003830  67.5844 292.5786 15.01256620163953
STARLINK-4328           
1 53071U 22077AE  25182.92066338  .00000536  00000+0  46312-4 0  9992
2 53071  97.6580   4.3231 0001892  85.9125 274.2315 15.01260117163295
STARLINK-4344           
1 53072U 22077AF  25183.51683062  .00000445  00000+0  39215-4 0  9991
2 53072  97.6571   4.9304 0002055  89.8754 270.2706 15.01261550163962
STARLINK-4346           
1 53073U 22077AG  25183.09976598  .00013422  00000+0  86886-3 0  9998
2 53073  97.6478   5.1710 0005740  61.2958 298.8847 15.08270724163958
STARLINK-4310           
1 53074U 22077AH  25183.45758623  .00000482  00000+0  42085-4 0  9992
2 53074  97.6580   4.8407 0001458  78.3709 281.7679 15.01261078163956
STARLINK-4348           
1 53075U 22077AJ  25182.78550684  .00000567  00000+0  48731-4 0  9993
2 53075  97.6580   4.1794 0002186  84.8091 275.3382 15.01262503163273
STARLINK-4347           
1 53076U 22077AK  25183.51708468  .00001401  00000+0  11366-3 0  9992
2 53076  97.6575   4.9173 0002210  80.4520 279.6953 15.01265512163964
STARLINK-4322           
1 53078U 22077AM  25183.51498360 -.00000020  00000+0  30607-5 0  9999
2 53078  97.6570   4.9121 0002118  77.6913 282.4548 15.01258322163968
STARLINK-4327           
1 53079U 22077AN  25182.97622429  .00000444  00000+0  39189-4 0  9996
2 53079  97.6564   4.3818 0002432  62.9375 297.2098 15.01262071163888
STARLINK-4330           
1 53080U 22077AP  25182.77995741 -.00000287  00000+0 -17777-4 0  9992
2 53080  97.6568   4.1885 0003130  93.6453 266.5129 15.01251626163271
STARLINK-4326           
1 53081U 22077AQ  25183.51340835 -.00003737  00000+0 -28660-3 0  9999
2 53081  97.6566   4.8938 0002131  91.9389 268.2080 15.01242374163966
STARLINK-4321           
1 53082U 22077AR  25183.50757686 -.00000028  00000+0  24387-5 0  9998
2 53082  97.6563   4.9053 0002655  74.5997 285.5520 15.01258344163961
STARLINK-4251           
1 53083U 22077AS  25183.49463922 -.00001538  00000+0 -11521-3 0  9996
2 53083  97.6551   4.8843 0003507  56.6971 303.4588 15.01249300163961
STARLINK-4319           
1 53084U 22077AT  25183.50572514 -.00000072  00000+0 -10419-5 0  9996
2 53084  97.6563   4.9032 0002462  67.9885 292.1600 15.01258852163965
STARLINK-4324           
1 53085U 22077AU  25182.76723711  .00000123  00000+0  14181-4 0  9995
2 53085  97.6561   4.1766 0002786  51.0411 309.1061 15.01260791163277
STARLINK-4318           
1 53086U 22077AV  25183.10396192 -.00000580  00000+0 -40563-4 0  9996
2 53086  97.6562   4.5062 0003412  52.8223 307.3312 15.01257838163906
STARLINK-4329           
1 53087U 22077AW  25182.91667824  .00421862  00000+0  40946-2 0  9999
2 53087  97.6634   8.6418 0001687  85.9583 310.7004 15.65000104164140
STARLINK-4333           
1 53088U 22077AX  25182.76699472  .00000088  00000+0  11466-4 0  9997
2 53088  97.6562   4.1726 0004387  57.8063 302.3586 15.01260533163274
STARLINK-4063           
1 53132U 22083A   25183.41231986  .00000011  00000+0  18787-4 0  9998
2 53132  53.2169 217.6599 0000989  81.3738 278.7366 15.08837359164062
STARLINK-4150           
1 53134U 22083C   25183.41968008 -.00000626  00000+0 -21282-4 0  9990
2 53134  53.2161 217.6260 0001093  81.0160 279.0956 15.08835312164060
STARLINK-4023           
1 53135U 22083D   25182.83087446 -.00000764  00000+0 -29947-4 0  9993
2 53135  53.2162 220.2697 0001034  68.3191 291.7912 15.08843784164338
STARLINK-4152           
1 53136U 22083E   25183.35712506  .00000364  00000+0  40956-4 0  9991
2 53136  53.2166 217.9081 0000705  59.8714 300.2348 15.08849721164058
STARLINK-4145           
1 53137U 22083F   25182.81983789  .00000492  00000+0  49014-4 0  9991
2 53137  53.2167 220.3203 0001133  83.9783 276.1338 15.08838007163340
STARLINK-4141           
1 53138U 22083G   25182.81849533 -.00000295  00000+0 -47528-6 0  9993
2 53138  53.2163 215.5070 0001094  74.2955 285.8157 15.08832425164182
STARLINK-4185           
1 53139U 22083H   25182.80879726  .00000233  00000+0  32708-4 0  9992
2 53139  53.2164 220.3687 0001023  80.9404 279.1704 15.08837509163346
STARLINK-4170           
1 53140U 22083J   25183.40863436 -.00002231  00000+0 -12215-3 0  9994
2 53140  53.2158 217.6751 0001023  80.2373 279.8735 15.08838625164061
STARLINK-4103           
1 53141U 22083K   25182.52911492 -.00000670  00000+0 -24045-4 0  9993
2 53141  53.2162 221.6247 0000986  82.4603 277.6501 15.08837348163303
STARLINK-4101           
1 53142U 22083L   25182.80238968 -.00001317  00000+0 -64721-4 0  9999
2 53142  53.2162 220.3692 0000839  55.7000 304.4071 15.08837275163350
STARLINK-4102           
1 53143U 22083M   25182.45919413 -.00000326  00000+0 -23835-5 0  9993
2 53143  53.2159 221.9395 0001001  93.0582 267.0525 15.08834604163920
STARLINK-4100           
1 53144U 22083N   25183.13264093 -.00000945  00000+0 -41291-4 0  9999
2 53144  53.2160 218.9227 0001191  82.5473 277.5655 15.08831742164027
STARLINK-4106           
1 53145U 22083P   25183.51167904 -.00000921  00000+0 -39826-4 0  9990
2 53145  53.2158 217.2144 0000973  78.3017 281.8084 15.08834021164082
STARLINK-4094           
1 53147U 22083R   25183.11055549 -.00000754  00000+0 -29326-4 0  9997
2 53147  53.2159 219.0165 0001044  85.0448 275.0663 15.08834631164020
STARLINK-4021           
1 53149U 22083T   25182.80701617 -.00000072  00000+0  13577-4 0  9991
2 53149  53.2163 210.5813 0001169  84.5805 275.5321 15.08836978163483
STARLINK-4038           
1 53150U 22083U   25183.22555704 -.00000457  00000+0 -10611-4 0  9998
2 53150  53.2157 208.4993 0001085  76.7720 283.3393 15.08837199164178
STARLINK-4040           
1 53151U 22083V   25183.21451942 -.00001071  00000+0 -49219-4 0  9996
2 53151  53.2160 208.5480 0000966  80.5205 279.5896 15.08832144164173
STARLINK-4045           
1 53152U 22083W   25183.22187979  .00000380  00000+0  41971-4 0  9991
2 53152  53.2158 208.5161 0001129  86.3180 273.7941 15.08842437164178
